start=new Date('2022-05-18T00:00:00.000Z').valueOf();
sats=[{"APOAPSIS":"548.450","CENTER_NAME":"EARTH","OBJECT_NAME":"STARLINK-1663","GP_ID":"203783146","CLASSIFICATION_TYPE":"U","FILE":"3450137","SEMIMAJOR_AXIS":"6925.354","RA_OF_ASC_NODE":"306.6667","MEAN_ANOMALY":"297.2283","PERIAPSIS":"545.988","MEAN_MOTION":"15.06398198","ARG_OF_PERICENTER":"62.8887","SITE":"AFETR","EPHEMERIS_TYPE":"0","REF_FRAME":"TEME","REV_AT_EPOCH":"8965","TLE_LINE2":"2 46535  53.0560 306.6667 0001777  62.8887 297.2283 15.06398198 89650","OBJECT_TYPE":"PAYLOAD","EPOCH":"2022-05-17T10:36:12.893760","DECAY_DATE":null,"TLE_LINE1":"1 46535U 20070D   22137.44181590  .00001255  00000-0  10312-3 0  9992","RCS_SIZE":"LARGE","NORAD_CAT_ID":"46535","PERIOD":"95.592","LAUNCH_DATE":"2020-10-06","COUNTRY_CODE":"US","ECCENTRICITY":"0.00017770","MEAN_MOTION_DOT":"0.00001255","BSTAR":"0.00010312000000","MEAN_MOTION_DDOT":"0.0000000000000","ELEMENT_SET_NO":"999","MEAN_ELEMENT_THEORY":"SGP4","OBJECT_ID":"2020-070D","TIME_SYSTEM":"UTC","INCLINATION":"53.0560"},{"OBJECT_ID":"2020-070F","MEAN_ELEMENT_THEORY":"SGP4","MEAN_MOTION_DOT":"0.00001036","BSTAR":"0.00008842600000","MEAN_MOTION_DDOT":"0.0000000000000","ELEMENT_SET_NO":"999","NORAD_CAT_ID":"46537","RCS_SIZE":"LARGE","PERIOD":"95.592","LAUNCH_DATE":"2020-10-06","COUNTRY_CODE":"US","ECCENTRICITY":"0.00013290","INCLINATION":"53.0543","TIME_SYSTEM":"UTC","PERIAPSIS":"546.301","MEAN_ANOMALY":"267.7870","MEAN_MOTION":"15.06397537","SEMIMAJOR_AXIS":"6925.356","RA_OF_ASC_NODE":"307.7241","CLASSIFICATION_TYPE":"U","GP_ID":"203782907","OBJECT_NAME":"STARLINK-1672","FILE":"3450137","APOAPSIS":"548.141","CENTER_NAME":"EARTH","TLE_LINE1":"1 46537U 20070F   22137.20222993  .00001036  00000-0  88426-4 0  9990","EPOCH":"2022-05-17T04:51:12.665952","DECAY_DATE":null,"REV_AT_EPOCH":"8962","TLE_LINE2":"2 46537  53.0543 307.7241 0001329  92.3271 267.7870 15.06397537 89628","OBJECT_TYPE":"PAYLOAD","ARG_OF_PERICENTER":"92.3271","SITE":"AFETR","EPHEMERIS_TYPE":"0","REF_FRAME":"TEME"},{"MEAN_MOTION_DDOT":"0.0000000000000","BSTAR":"-0.00000926780000","ELEMENT_SET_NO":"999","MEAN_MOTION_DOT":"-0.00000419","MEAN_ELEMENT_THEORY":"SGP4","OBJECT_ID":"2020-070G","COUNTRY_CODE":"US","ECCENTRICITY":"0.00014520","RCS_SIZE":"LARGE","PERIOD":"95.593","NORAD_CAT_ID":"46538","LAUNCH_DATE":"2020-10-06","TIME_SYSTEM":"UTC","INCLINATION":"53.0545","SEMIMAJOR_AXIS":"6925.397","RA_OF_ASC_NODE":"306.6387","PERIAPSIS":"546.257","MEAN_ANOMALY":"293.9818","MEAN_MOTION":"15.06384169","CENTER_NAME":"EARTH","APOAPSIS":"548.268","GP_ID":"203781657","OBJECT_NAME":"STARLINK-1678","CLASSIFICATION_TYPE":"U","FILE":"3450137","EPOCH":"2022-05-17T10:41:32.151264","DECAY_DATE":null,"TLE_LINE1":"1 46538U 20070G   22137.44551101 -.00000419  00000-0 -92678-5 0  9994","EPHEMERIS_TYPE":"0","REF_FRAME":"TEME","ARG_OF_PERICENTER":"66.1323","SITE":"AFETR","OBJECT_TYPE":"PAYLOAD","REV_AT_EPOCH":"8965","TLE_LINE2":"2 46538  53.0545 306.6387 0001452  66.1323 293.9818 15.06384169 89657"},{"TLE_LINE1":"1 46541U 20070K   22137.69062708  .00000122  00000-0  27118-4 0  9990","DECAY_DATE":null,"EPOCH":"2022-05-17T16:34:30.179712","OBJECT_TYPE":"PAYLOAD","TLE_LINE2":"2 46541  53.0546 285.5552 0001344  85.4137 274.7005 15.06387619 89971","REV_AT_EPOCH":"8997","REF_FRAME":"TEME","EPHEMERIS_TYPE":"0","SITE":"AFETR","ARG_OF_PERICENTER":"85.4137","MEAN_MOTION":"15.06387619","PERIAPSIS":"546.321","MEAN_ANOMALY":"274.7005","RA_OF_ASC_NODE":"285.5552","SEMIMAJOR_AXIS":"6925.387","FILE":"3450530","GP_ID":"203794980","OBJECT_NAME":"STARLINK-1687","CLASSIFICATION_TYPE":"U","APOAPSIS":"548.182","CENTER_NAME":"EARTH","INCLINATION":"53.0546","TIME_SYSTEM":"UTC","OBJECT_ID":"2020-070K","MEAN_ELEMENT_THEORY":"SGP4","ELEMENT_SET_NO":"999","BSTAR":"0.00002711800000","MEAN_MOTION_DDOT":"0.0000000000000","MEAN_MOTION_DOT":"0.00000122","ECCENTRICITY":"0.00013440","COUNTRY_CODE":"US","LAUNCH_DATE":"2020-10-06","RCS_SIZE":"LARGE","PERIOD":"95.593","NORAD_CAT_ID":"46541"},{"RCS_SIZE":"LARGE","NORAD_CAT_ID":"46542","PERIOD":"95.592","LAUNCH_DATE":"2020-10-06","COUNTRY_CODE":"US","ECCENTRICITY":"0.00015540","MEAN_ELEMENT_THEORY":"SGP4","OBJECT_ID":"2020-070L","MEAN_MOTION_DOT":"0.00004916","MEAN_MOTION_DDOT":"0.0000000000000","BSTAR":"0.00034863000000","ELEMENT_SET_NO":"999","INCLINATION":"53.0550","TIME_SYSTEM":"UTC","GP_ID":"203794989","OBJECT_NAME":"STARLINK-1692","CLASSIFICATION_TYPE":"U","FILE":"3450512","CENTER_NAME":"EARTH","APOAPSIS":"548.263","MEAN_ANOMALY":"291.6944","PERIAPSIS":"546.110","MEAN_MOTION":"15.06408871","SEMIMAJOR_AXIS":"6925.321","RA_OF_ASC_NODE":"305.2386","REV_AT_EPOCH":"8972","TLE_LINE2":"2 46542  53.0550 305.2386 0001554  68.4210 291.6944 15.06408871 89725","OBJECT_TYPE":"PAYLOAD","ARG_OF_PERICENTER":"68.4210","SITE":"AFETR","EPHEMERIS_TYPE":"0","REF_FRAME":"TEME","TLE_LINE1":"1 46542U 20070L   22137.75880580  .00004916  00000-0  34863-3 0  9993","EPOCH":"2022-05-17T18:12:40.821120","DECAY_DATE":null},{"OBJECT_TYPE":"PAYLOAD","TLE_LINE2":"2 46543  53.0559 306.4912 0001768  54.9027 305.2127 15.06393367 89689","REV_AT_EPOCH":"8968","REF_FRAME":"TEME","EPHEMERIS_TYPE":"0","SITE":"AFETR","ARG_OF_PERICENTER":"54.9027","TLE_LINE1":"1 46543U 20070M   22137.47868146 -.00000158  00000-0  83214-5 0  9998","DECAY_DATE":null,"EPOCH":"2022-05-17T11:29:18.078144","FILE":"3450513","OBJECT_NAME":"STARLINK-1693","GP_ID":"203794993","CLASSIFICATION_TYPE":"U","APOAPSIS":"548.458","CENTER_NAME":"EARTH","MEAN_MOTION":"15.06393367","MEAN_ANOMALY":"305.2127","PERIAPSIS":"546.009","RA_OF_ASC_NODE":"306.4912","SEMIMAJOR_AXIS":"6925.369","INCLINATION":"53.0559","TIME_SYSTEM":"UTC","ECCENTRICITY":"0.00017680","COUNTRY_CODE":"US","LAUNCH_DATE":"2020-10-06","PERIOD":"95.593","RCS_SIZE":"LARGE","NORAD_CAT_ID":"46543","MEAN_ELEMENT_THEORY":"SGP4","OBJECT_ID":"2020-070M","ELEMENT_SET_NO":"999","BSTAR":"0.00000832140000","MEAN_MOTION_DDOT":"0.0000000000000","MEAN_MOTION_DOT":"-0.00000158"},{"TLE_LINE1":"1 46544U 20070N   22137.54088145  .00000301  00000-0  39136-4 0  9992","EPOCH":"2022-05-17T12:58:52.157280","DECAY_DATE":null,"REV_AT_EPOCH":"8989","TLE_LINE2":"2 46544  53.0562 291.2279 0001462  67.1891 292.9252 15.06389568 89899","OBJECT_TYPE":"PAYLOAD","ARG_OF_PERICENTER":"67.1891","SITE":"AFETR","EPHEMERIS_TYPE":"0","REF_FRAME":"TEME","MEAN_ANOMALY":"292.9252","PERIAPSIS":"546.233","MEAN_MOTION":"15.06389568","RA_OF_ASC_NODE":"291.2279","SEMIMAJOR_AXIS":"6925.381","GP_ID":"203794995","CLASSIFICATION_TYPE":"U","OBJECT_NAME":"STARLINK-1694","FILE":"3450513","CENTER_NAME":"EARTH","APOAPSIS":"548.258","INCLINATION":"53.0562","TIME_SYSTEM":"UTC","OBJECT_ID":"2020-070N","MEAN_ELEMENT_THEORY":"SGP4","MEAN_MOTION_DOT":"0.00000301","BSTAR":"0.00003913600000","MEAN_MOTION_DDOT":"0.0000000000000","ELEMENT_SET_NO":"999","NORAD_CAT_ID":"46544","RCS_SIZE":"LARGE","PERIOD":"95.593","LAUNCH_DATE":"2020-10-06","COUNTRY_CODE":"US","ECCENTRICITY":"0.00014620"},{"TLE_LINE2":"2 46545  53.0536 306.6415 0001305  80.0062 280.1074 15.06393574 89662","REV_AT_EPOCH":"8966","OBJECT_TYPE":"PAYLOAD","SITE":"AFETR","ARG_OF_PERICENTER":"80.0062","REF_FRAME":"TEME","EPHEMERIS_TYPE":"0","TLE_LINE1":"1 46545U 20070P   22137.44919458  .00000711  00000-0  66608-4 0  9991","DECAY_DATE":null,"EPOCH":"2022-05-17T10:46:50.411712","FILE":"3450513","GP_ID":"203794996","OBJECT_NAME":"STARLINK-1696","CLASSIFICATION_TYPE":"U","APOAPSIS":"548.137","CENTER_NAME":"EARTH","MEAN_MOTION":"15.06393574","MEAN_ANOMALY":"280.1074","PERIAPSIS":"546.329","RA_OF_ASC_NODE":"306.6415","SEMIMAJOR_AXIS":"6925.368","TIME_SYSTEM":"UTC","INCLINATION":"53.0536","LAUNCH_DATE":"2020-10-06","RCS_SIZE":"LARGE","PERIOD":"95.593","NORAD_CAT_ID":"46545","ECCENTRICITY":"0.00013050","COUNTRY_CODE":"US","MEAN_ELEMENT_THEORY":"SGP4","OBJECT_ID":"2020-070P","MEAN_MOTION_DOT":"0.00000711","ELEMENT_SET_NO":"999","MEAN_MOTION_DDOT":"0.0000000000000","BSTAR":"0.00006660800000"},{"CLASSIFICATION_TYPE":"U","GP_ID":"203794501","OBJECT_NAME":"STARLINK-1697","FILE":"3450513","APOAPSIS":"548.405","CENTER_NAME":"EARTH","MEAN_ANOMALY":"302.5266","PERIAPSIS":"546.049","MEAN_MOTION":"15.06395618","RA_OF_ASC_NODE":"305.2005","SEMIMAJOR_AXIS":"6925.362","OBJECT_TYPE":"PAYLOAD","REV_AT_EPOCH":"8941","TLE_LINE2":"2 46546  53.0531 305.2005 0001701  57.5887 302.5266 15.06395618 89418","EPHEMERIS_TYPE":"0","REF_FRAME":"TEME","SITE":"AFETR","ARG_OF_PERICENTER":"57.5887","TLE_LINE1":"1 46546U 20070Q   22137.76617989  .00000919  00000-0  80610-4 0  9990","EPOCH":"2022-05-17T18:23:17.942496","DECAY_DATE":null,"COUNTRY_CODE":"US","ECCENTRICITY":"0.00017010","NORAD_CAT_ID":"46546","RCS_SIZE":"LARGE","PERIOD":"95.592","LAUNCH_DATE":"2020-10-06","MEAN_ELEMENT_THEORY":"SGP4","OBJECT_ID":"2020-070Q","BSTAR":"0.00008061000000","MEAN_MOTION_DDOT":"0.0000000000000","ELEMENT_SET_NO":"999","MEAN_MOTION_DOT":"0.00000919","INCLINATION":"53.0531","TIME_SYSTEM":"UTC"},{"INCLINATION":"53.0538","TIME_SYSTEM":"UTC","MEAN_MOTION_DOT":"0.00001074","MEAN_MOTION_DDOT":"0.0000000000000","BSTAR":"0.00009097700000","ELEMENT_SET_NO":"999","OBJECT_ID":"2020-070R","MEAN_ELEMENT_THEORY":"SGP4","PERIOD":"95.592","RCS_SIZE":"LARGE","NORAD_CAT_ID":"46547","LAUNCH_DATE":"2020-10-06","COUNTRY_CODE":"US","ECCENTRICITY":"0.00014480","EPOCH":"2022-05-17T17:30:12.485088","DECAY_DATE":null,"TLE_LINE1":"1 46547U 20070R   22137.72931117  .00001074  00000-0  90977-4 0  9999","SITE":"AFETR","ARG_OF_PERICENTER":"76.7638","EPHEMERIS_TYPE":"0","REF_FRAME":"TEME","REV_AT_EPOCH":"8972","TLE_LINE2":"2 46547  53.0538 305.3685 0001448  76.7638 283.3512 15.06401446 89727","OBJECT_TYPE":"PAYLOAD","RA_OF_ASC_NODE":"305.3685","SEMIMAJOR_AXIS":"6925.344","PERIAPSIS":"546.206","MEAN_ANOMALY":"283.3512","MEAN_MOTION":"15.06401446","APOAPSIS":"548.212","CENTER_NAME":"EARTH","OBJECT_NAME":"STARLINK-1698","GP_ID":"203794533","CLASSIFICATION_TYPE":"U","FILE":"3450537"}];
